STARLINK-36610          
1 67637U 26020W   26067.58701514  .00155361  00000+0  93652-3 0  9999
2 67637  42.9991 148.7377 0002115 262.5651  97.4979 15.76441226  5916
STARLINK-36599          
1 67638U 26020X   26069.25002315 -.01893559  00000+0 -25310-1 0  9994
2 67638  42.9993 138.3102 0001027 270.8559 305.8246 15.60472862  6041
STARLINK-36595          
1 67639U 26020Y   26069.25002315 -.01942233  00000+0 -20246-1 0  9992
2 67639  42.9992 138.3255 0001062 266.2304 304.8889 15.66789199  6048
STARLINK-36570          
1 67640U 26020Z   26067.58045078  .00368006  00000+0  21569-2 0  9998
2 67640  42.9991 148.6836 0001830 285.4802  74.5865 15.76463592  5914
STARLINK-36514          
1 67641U 26020AA  26069.25002315 -.01893114  00000+0 -24810-1 0  9999
2 67641  42.9996 138.2616 0001094 268.1238 327.8153 15.60977959  6043
STARLINK-36556          
1 67642U 26020AB  26069.25002315 -.01944346  00000+0 -23109-1 0  9994
2 67642  42.9991 138.5573 0001145 282.7570 194.8250 15.63546211  6048
STARLINK-36533          
1 67643U 26020AC  26069.25002315 -.01953580  00000+0 -22507-1 0  9996
2 67643  42.9996 138.7236 0001292 278.5749 132.7877 15.64338522  6047
STARLINK-36623          
1 67644U 26020AD  26069.25002315 -.01947490  00000+0 -20180-1 0  9995
2 67644  42.9992 138.5693 0001047 282.8720 189.9841 15.66944174  6047
STARLINK-36619          
1 67645U 26020AE  26069.25002315 -.01944809  00000+0 -19920-1 0  9997
2 67645  42.9993 138.5330 0001069 280.3692 207.1695 15.67221607  6042
ALSAT-3B                
1 67646U 26021A   26069.30202067  .00009067  00000+0  37650-3 0  9998
2 67646  97.4662 143.6383 0013781 130.0135 230.2314 15.23974302  5811
STARLINK-36719          
1 67648U 26022A   26069.25002315 -.01999623  00000+0 -18778-1 0  9996
2 67648  97.2839 103.2338 0001682  66.5569  11.0223 15.70165255  5961
STARLINK-36342          
1 67649U 26022B   26069.04312083  .00642326  00000+0  37502-2 0  9999
2 67649  97.2845 103.0254 0033990  35.5811 324.7712 15.75931487  5608
STARLINK-36703          
1 67650U 26022C   26068.08916991  .00131435  00000+0  86642-3 0  9996
2 67650  97.2848 102.0261 0002181 103.8801 256.2707 15.75246048  5454
STARLINK-36696          
1 67651U 26022D   26069.25002315 -.02009504  00000+0 -17508-1 0  9991
2 67651  97.2840 103.2455 0001748  67.1311  36.7943 15.71958277  5960
STARLINK-36699          
1 67652U 26022E   26069.03961753  .00272350  00000+0  17607-2 0  9996
2 67652  97.2835 103.0290 0001855 116.9098 243.2357 15.75301800  5607
STARLINK-36694          
1 67653U 26022F   26069.25002315 -.02007449  00000+0 -18208-1 0  9997
2 67653  97.2838 103.2506 0001729  69.5954  47.2949 15.71004763  5903
STARLINK-36620          
1 67654U 26022G   26069.25002315 -.02004057  00000+0 -20708-1 0  9998
2 67654  97.2840 103.2443 0001629  69.6619  33.6789 15.67862549  5961
STARLINK-36720          
1 67655U 26022H   26069.03538165  .00389954  00000+0  24806-2 0  9994
2 67655  97.2845 103.0354 0001172 132.4481 227.6884 15.75348497  5607
STARLINK-36688          
1 67656U 26022J   26069.03467784  .00186815  00000+0  12229-2 0  9990
2 67656  97.2851 103.0354 0001056  90.9401 269.1986 15.75251246  5605
STARLINK-36706          
1 67657U 26022K   26069.25002315 -.01996432  00000+0 -22322-1 0  9991
2 67657  97.2843 103.2469 0001784  66.4948  44.9669 15.65907987  6076
STARLINK-36701          
1 67658U 26022L   26069.25002315 -.01997300  00000+0 -23639-1 0  9999
2 67658  97.2844 103.2447 0001679  67.3312  37.9779 15.64490109  6089
STARLINK-36642          
1 67659U 26022M   26069.25002315 -.02002971  00000+0 -22536-1 0  9997
2 67659  97.2845 103.2524 0001766  73.5063  48.7449 15.65762793  5968
STARLINK-36673          
1 67660U 26022N   26069.25002315 -.02004162  00000+0 -21677-1 0  9998
2 67660  97.2846 103.2584 0001751  72.2673  65.4910 15.66741613  6075
STARLINK-36674          
1 67661U 26022P   26069.09185051  .00182905  00000+0  11990-2 0  9996
2 67661  97.2851 103.1100 0001171  49.3813 310.7554 15.75230041  5619
STARLINK-36700          
1 67662U 26022Q   26069.08973722  .00233225  00000+0  15179-2 0  9991
2 67662  97.2846 103.1129 0001586  78.1221 282.0222 15.75254692  5619
STARLINK-36675          
1 67663U 26022R   26069.09114329  .00130608  00000+0  86187-3 0  9992
2 67663  97.2858 103.1120 0001255  65.6905 294.4492 15.75225549  5612
STARLINK-36404          
1 67664U 26022S   26069.25002315 -.01991468  00000+0 -25864-1 0  9997
2 67664  97.2843 103.2526 0001878  72.9180  52.2782 15.62122316  6083
STARLINK-36399          
1 67665U 26022T   26069.25002315 -.02010836  00000+0 -18676-1 0  9993
2 67665  97.2850 103.2817 0001784  78.8164 113.9015 15.70445962  6075
STARLINK-36365          
1 67666U 26022U   26069.25002315 -.02015721  00000+0 -18109-1 0  9993
2 67666  97.2850 103.2869 0001755  79.8761 123.8063 15.71243667  6077
STARLINK-36622          
1 67667U 26022V   26069.25002315 -.02010431  00000+0 -20212-1 0  9995
2 67667  97.2848 103.2866 0001841  77.2796 124.0897 15.68537820  6024
