OBJECT_NAME,OBJECT_ID,EPOCH,MEAN_MOTION,ECCENTRICITY,INCLINATION,RA_OF_ASC_NODE,ARG_OF_PERICENTER,MEAN_ANOMALY,EPHEMERIS_TYPE,CLASSIFICATION_TYPE,NORAD_CAT_ID,ELEMENT_SET_NO,REV_AT_EPOCH,BSTAR,MEAN_MOTION_DOT,MEAN_MOTION_DDOT
STARLINK-36610,2026-020W,2026-03-08T14:05:18.108096,15.76441226,.00021156,42.9991,148.7377,262.5651,97.4979,0,U,67637,999,591,.93652396E-3,.155361E-2,0
STARLINK-36599,2026-020X,2026-03-10T06:00:02.000160,15.60472862,.00010279,42.9993,138.3102,270.8559,305.8246,0,U,67638,999,604,-.25310404E-1,-.1893559E-1,0
STARLINK-36595,2026-020Y,2026-03-10T06:00:02.000160,15.66789199,.00010625,42.9992,138.3255,266.2304,304.8889,0,U,67639,999,604,-.20245965E-1,-.1942233E-1,0
STARLINK-36570,2026-020Z,2026-03-08T13:55:50.947392,15.76463592,.00018309,42.9991,148.6836,285.4802,74.5865,0,U,67640,999,591,.21568895E-2,.368006E-2,0
STARLINK-36514,2026-020AA,2026-03-10T06:00:02.000160,15.60977959,.0001094,42.9996,138.2616,268.1238,327.8153,0,U,67641,999,604,-.2481034E-1,-.1893114E-1,0
STARLINK-36556,2026-020AB,2026-03-10T06:00:02.000160,15.63546211,.00011452,42.9991,138.5573,282.7570,194.8250,0,U,67642,999,604,-.23108911E-1,-.1944346E-1,0
STARLINK-36533,2026-020AC,2026-03-10T06:00:02.000160,15.64338522,.00012923,42.9996,138.7236,278.5749,132.7877,0,U,67643,999,604,-.22507411E-1,-.195358E-1,0
STARLINK-36623,2026-020AD,2026-03-10T06:00:02.000160,15.66944174,.00010476,42.9992,138.5693,282.8720,189.9841,0,U,67644,999,604,-.20179535E-1,-.194749E-1,0
STARLINK-36619,2026-020AE,2026-03-10T06:00:02.000160,15.67221607,.00010698,42.9993,138.5330,280.3692,207.1695,0,U,67645,999,604,-.1991955E-1,-.1944809E-1,0
ALSAT-3B,2026-021A,2026-03-10T07:14:54.585888,15.23974302,.00137811,97.4662,143.6383,130.0135,230.2314,0,U,67646,999,581,.37650204E-3,.9067E-4,0
STARLINK-36719,2026-022A,2026-03-10T06:00:02.000160,15.70165255,.00016828,97.2839,103.2338,66.5569,11.0223,0,U,67648,999,596,-.18777962E-1,-.1999623E-1,0
STARLINK-36342,2026-022B,2026-03-10T01:02:05.639712,15.75931487,.00339903,97.2845,103.0254,35.5811,324.7712,0,U,67649,999,560,.37502268E-2,.642326E-2,0
STARLINK-36703,2026-022C,2026-03-09T02:08:24.280224,15.75246048,.00021811,97.2848,102.0261,103.8801,256.2707,0,U,67650,999,545,.86642082E-3,.131435E-2,0
STARLINK-36696,2026-022D,2026-03-10T06:00:02.000160,15.71958277,.00017481,97.2840,103.2455,67.1311,36.7943,0,U,67651,999,596,-.17508125E-1,-.2009504E-1,0
STARLINK-36699,2026-022E,2026-03-10T00:57:02.954592,15.75301800,.00018552,97.2835,103.0290,116.9098,243.2357,0,U,67652,999,560,.17606738E-2,.27235E-2,0
STARLINK-36694,2026-022F,2026-03-10T06:00:02.000160,15.71004763,.00017298,97.2838,103.2506,69.5954,47.2949,0,U,67653,999,590,-.18207901E-1,-.2007449E-1,0
STARLINK-36620,2026-022G,2026-03-10T06:00:02.000160,15.67862549,.00016296,97.2840,103.2443,69.6619,33.6789,0,U,67654,999,596,-.20708319E-1,-.2004057E-1,0
STARLINK-36720,2026-022H,2026-03-10T00:50:56.974560,15.75348497,.00011729,97.2845,103.0354,132.4481,227.6884,0,U,67655,999,560,.24806491E-2,.389954E-2,0
STARLINK-36688,2026-022J,2026-03-10T00:49:56.165376,15.75251246,.00010567,97.2851,103.0354,90.9401,269.1986,0,U,67656,999,560,.12229179E-2,.186815E-2,0
STARLINK-36706,2026-022K,2026-03-10T06:00:02.000160,15.65907987,.00017845,97.2843,103.2469,66.4948,44.9669,0,U,67657,999,607,-.2232177E-1,-.1996432E-1,0
STARLINK-36701,2026-022L,2026-03-10T06:00:02.000160,15.64490109,.00016791,97.2844,103.2447,67.3312,37.9779,0,U,67658,999,608,-.23639113E-1,-.19973E-1,0
STARLINK-36642,2026-022M,2026-03-10T06:00:02.000160,15.65762793,.00017662,97.2845,103.2524,73.5063,48.7449,0,U,67659,999,596,-.2253642E-1,-.2002971E-1,0
STARLINK-36673,2026-022N,2026-03-10T06:00:02.000160,15.66741613,.00017515,97.2846,103.2584,72.2673,65.4910,0,U,67660,999,607,-.21677007E-1,-.2004162E-1,0
STARLINK-36674,2026-022P,2026-03-10T02:12:15.884064,15.75230041,.00011718,97.2851,103.1100,49.3813,310.7554,0,U,67661,999,561,.11989926E-2,.182905E-2,0
STARLINK-36700,2026-022Q,2026-03-10T02:09:13.295808,15.75254692,.00015865,97.2846,103.1129,78.1221,282.0222,0,U,67662,999,561,.15179355E-2,.233225E-2,0
STARLINK-36675,2026-022R,2026-03-10T02:11:14.780256,15.75225549,.00012556,97.2858,103.1120,65.6905,294.4492,0,U,67663,999,561,.86187089E-3,.130608E-2,0
STARLINK-36404,2026-022S,2026-03-10T06:00:02.000160,15.62122316,.00018781,97.2843,103.2526,72.9180,52.2782,0,U,67664,999,608,-.25864122E-1,-.1991468E-1,0
STARLINK-36399,2026-022T,2026-03-10T06:00:02.000160,15.70445962,.00017845,97.2850,103.2817,78.8164,113.9015,0,U,67665,999,607,-.18675677E-1,-.2010836E-1,0
STARLINK-36365,2026-022U,2026-03-10T06:00:02.000160,15.71243667,.00017558,97.2850,103.2869,79.8761,123.8063,0,U,67666,999,607,-.18109355E-1,-.2015721E-1,0
STARLINK-36622,2026-022V,2026-03-10T06:00:02.000160,15.68537820,.00018411,97.2848,103.2866,77.2796,124.0897,0,U,67667,999,602,-.20212182E-1,-.2010431E-1,0
